start=new Date('2022-05-24T00:00:00.000Z').valueOf();
sats=[{"NORAD_CAT_ID":"45181","TLE_LINE1":"1 45181U 20012D   22143.74939537 -.00001003  00000-0 -48433-4 0  9995","GP_ID":"204363846","EPOCH":"2022-05-23T17:59:07.759968","SITE":"AFETR","APOAPSIS":"548.661","TIME_SYSTEM":"UTC","INCLINATION":"53.0566","MEAN_ANOMALY":"304.4574","CLASSIFICATION_TYPE":"U","CENTER_NAME":"EARTH","LAUNCH_DATE":"2020-02-17","RA_OF_ASC_NODE":"148.3545","BSTAR":"-0.00004843300000","SEMIMAJOR_AXIS":"6925.369","OBJECT_TYPE":"PAYLOAD","MEAN_MOTION":"15.06393329","ECCENTRICITY":"0.00020600","PERIAPSIS":"545.807","ARG_OF_PERICENTER":"55.6610","REF_FRAME":"TEME","PERIOD":"95.593","OBJECT_NAME":"STARLINK-1200","RCS_SIZE":"LARGE","MEAN_MOTION_DDOT":"0.0000000000000","OBJECT_ID":"2020-012D","COUNTRY_CODE":"US","DECAY_DATE":null,"REV_AT_EPOCH":"12594","ELEMENT_SET_NO":"999","EPHEMERIS_TYPE":"0","MEAN_ELEMENT_THEORY":"SGP4","FILE":"3460905","TLE_LINE2":"2 45181  53.0566 148.3545 0002060  55.6610 304.4574 15.06393329125946","MEAN_MOTION_DOT":"-0.00001003"},{"CENTER_NAME":"EARTH","LAUNCH_DATE":"2020-02-17","RA_OF_ASC_NODE":"130.0477","MEAN_ANOMALY":"305.0933","CLASSIFICATION_TYPE":"U","BSTAR":"0.00027899000000","SEMIMAJOR_AXIS":"6925.328","NORAD_CAT_ID":"45182","TLE_LINE1":"1 45182U 20012E   22143.37156843  .00003877  00000-0  27899-3 0  9997","GP_ID":"204327984","EPOCH":"2022-05-23T08:55:03.512352","SITE":"AFETR","TIME_SYSTEM":"UTC","INCLINATION":"53.0521","APOAPSIS":"548.741","PERIOD":"95.592","RCS_SIZE":"LARGE","OBJECT_NAME":"STARLINK-1201","DECAY_DATE":null,"COUNTRY_CODE":"US","REV_AT_EPOCH":"12601","OBJECT_ID":"2020-012E","MEAN_MOTION_DDOT":"0.0000000000000","EPHEMERIS_TYPE":"0","MEAN_ELEMENT_THEORY":"SGP4","TLE_LINE2":"2 45182  53.0521 130.0477 0002236  55.0265 305.0933 15.06406806126015","FILE":"3460386","MEAN_MOTION_DOT":"0.00003877","ELEMENT_SET_NO":"999","OBJECT_TYPE":"PAYLOAD","MEAN_MOTION":"15.06406806","ECCENTRICITY":"0.00022360","ARG_OF_PERICENTER":"55.0265","REF_FRAME":"TEME","PERIAPSIS":"545.644"},{"RA_OF_ASC_NODE":"148.4815","LAUNCH_DATE":"2020-02-17","CENTER_NAME":"EARTH","CLASSIFICATION_TYPE":"U","MEAN_ANOMALY":"305.0012","BSTAR":"-0.00002213200000","SEMIMAJOR_AXIS":"6925.374","NORAD_CAT_ID":"45183","GP_ID":"204362349","TLE_LINE1":"1 45183U 20012F   22143.71990332 -.00000611  00000-0 -22132-4 0  9996","SITE":"AFETR","EPOCH":"2022-05-23T17:16:39.646848","INCLINATION":"53.0543","TIME_SYSTEM":"UTC","APOAPSIS":"548.651","PERIOD":"95.593","RCS_SIZE":"LARGE","OBJECT_NAME":"STARLINK-1202","REV_AT_EPOCH":"12594","DECAY_DATE":null,"COUNTRY_CODE":"US","OBJECT_ID":"2020-012F","MEAN_MOTION_DDOT":"0.0000000000000","TLE_LINE2":"2 45183  53.0543 148.4815 0002038  55.1168 305.0012 15.06391616125943","FILE":"3460905","MEAN_MOTION_DOT":"-0.00000611","EPHEMERIS_TYPE":"0","MEAN_ELEMENT_THEORY":"SGP4","ELEMENT_SET_NO":"999","OBJECT_TYPE":"PAYLOAD","MEAN_MOTION":"15.06391616","ECCENTRICITY":"0.00020380","REF_FRAME":"TEME","ARG_OF_PERICENTER":"55.1168","PERIAPSIS":"545.828"},{"PERIAPSIS":"545.903","ARG_OF_PERICENTER":"53.6540","REF_FRAME":"TEME","ECCENTRICITY":"0.00019180","MEAN_MOTION":"15.06394087","OBJECT_TYPE":"PAYLOAD","ELEMENT_SET_NO":"999","EPHEMERIS_TYPE":"0","MEAN_ELEMENT_THEORY":"SGP4","TLE_LINE2":"2 45184  53.0549 130.0116 0001918  53.6540 306.4626 15.06394087125204","FILE":"3460386","MEAN_MOTION_DOT":"-0.00001238","OBJECT_ID":"2020-012G","MEAN_MOTION_DDOT":"0.0000000000000","DECAY_DATE":null,"COUNTRY_CODE":"US","REV_AT_EPOCH":"12520","OBJECT_NAME":"STARLINK-1205","RCS_SIZE":"LARGE","PERIOD":"95.593","APOAPSIS":"548.560","TIME_SYSTEM":"UTC","INCLINATION":"53.0549","EPOCH":"2022-05-23T09:05:41.021664","SITE":"AFETR","GP_ID":"204326982","TLE_LINE1":"1 45184U 20012G   22143.37894701 -.00001238  00000-0 -64205-4 0  9995","NORAD_CAT_ID":"45184","SEMIMAJOR_AXIS":"6925.367","BSTAR":"-0.00006420500000","CLASSIFICATION_TYPE":"U","MEAN_ANOMALY":"306.4626","CENTER_NAME":"EARTH","LAUNCH_DATE":"2020-02-17","RA_OF_ASC_NODE":"130.0116"},{"BSTAR":"0.00004792900000","MEAN_ANOMALY":"304.4574","CLASSIFICATION_TYPE":"U","RA_OF_ASC_NODE":"149.4047","LAUNCH_DATE":"2020-02-17","CENTER_NAME":"EARTH","SEMIMAJOR_AXIS":"6925.333","GP_ID":"204327734","TLE_LINE1":"1 45185U 20012H   22143.51348240  .00000432  00000-0  47929-4 0  9991","NORAD_CAT_ID":"45185","APOAPSIS":"548.322","INCLINATION":"53.0544","TIME_SYSTEM":"UTC","SITE":"AFETR","EPOCH":"2022-05-23T12:19:24.879360","OBJECT_NAME":"STARLINK-1216","RCS_SIZE":"LARGE","PERIOD":"95.592","ELEMENT_SET_NO":"999","TLE_LINE2":"2 45185  53.0544 149.4047 0001623  55.6568 304.4574 15.06404929125850","FILE":"3460386","MEAN_MOTION_DOT":"0.00000432","EPHEMERIS_TYPE":"0","MEAN_ELEMENT_THEORY":"SGP4","MEAN_MOTION_DDOT":"0.0000000000000","OBJECT_ID":"2020-012H","REV_AT_EPOCH":"12585","DECAY_DATE":null,"COUNTRY_CODE":"US","MEAN_MOTION":"15.06404929","OBJECT_TYPE":"PAYLOAD","PERIAPSIS":"546.074","REF_FRAME":"TEME","ARG_OF_PERICENTER":"55.6568","ECCENTRICITY":"0.00016230"},{"SEMIMAJOR_AXIS":"6925.350","CLASSIFICATION_TYPE":"U","MEAN_ANOMALY":"315.9813","RA_OF_ASC_NODE":"148.4475","LAUNCH_DATE":"2020-02-17","CENTER_NAME":"EARTH","BSTAR":"0.00004188200000","SITE":"AFETR","EPOCH":"2022-05-23T17:27:16.369056","APOAPSIS":"548.548","INCLINATION":"53.0545","TIME_SYSTEM":"UTC","NORAD_CAT_ID":"45186","TLE_LINE1":"1 45186U 20012J   22143.72727279  .00000342  00000-0  41882-4 0  9990","GP_ID":"204364099","OBJECT_ID":"2020-012J","MEAN_MOTION_DDOT":"0.0000000000000","REV_AT_EPOCH":"12588","COUNTRY_CODE":"US","DECAY_DATE":null,"ELEMENT_SET_NO":"999","TLE_LINE2":"2 45186  53.0545 148.4475 0001924  44.1329 315.9813 15.06399409125880","FILE":"3460905","MEAN_MOTION_DOT":"0.00000342","MEAN_ELEMENT_THEORY":"SGP4","EPHEMERIS_TYPE":"0","PERIOD":"95.592","RCS_SIZE":"LARGE","OBJECT_NAME":"STARLINK-1224","ECCENTRICITY":"0.00019240","PERIAPSIS":"545.883","REF_FRAME":"TEME","ARG_OF_PERICENTER":"44.1329","OBJECT_TYPE":"PAYLOAD","MEAN_MOTION":"15.06399409"},{"OBJECT_ID":"2020-012K","MEAN_MOTION_DDOT":"0.0000000000000","DECAY_DATE":null,"COUNTRY_CODE":"US","REV_AT_EPOCH":"12593","ELEMENT_SET_NO":"999","EPHEMERIS_TYPE":"0","MEAN_ELEMENT_THEORY":"SGP4","TLE_LINE2":"2 45187  53.0554 148.4335 0001982  42.3547 317.7595 15.06390958125935","FILE":"3460905","MEAN_MOTION_DOT":"0.00000726","PERIOD":"95.593","RCS_SIZE":"LARGE","OBJECT_NAME":"STARLINK-1225","ECCENTRICITY":"0.00019820","PERIAPSIS":"545.869","ARG_OF_PERICENTER":"42.3547","REF_FRAME":"TEME","OBJECT_TYPE":"PAYLOAD","MEAN_MOTION":"15.06390958","SEMIMAJOR_AXIS":"6925.376","CLASSIFICATION_TYPE":"U","MEAN_ANOMALY":"317.7595","CENTER_NAME":"EARTH","RA_OF_ASC_NODE":"148.4335","LAUNCH_DATE":"2020-02-17","BSTAR":"0.00006763300000","EPOCH":"2022-05-23T17:32:35.058048","SITE":"AFETR","APOAPSIS":"548.614","TIME_SYSTEM":"UTC","INCLINATION":"53.0554","NORAD_CAT_ID":"45187","TLE_LINE1":"1 45187U 20012K   22143.73096132  .00000726  00000-0  67633-4 0  9997","GP_ID":"204362849"},{"MEAN_MOTION":"15.06393914","OBJECT_TYPE":"PAYLOAD","REF_FRAME":"TEME","ARG_OF_PERICENTER":"52.9294","PERIAPSIS":"545.809","ECCENTRICITY":"0.00020550","OBJECT_NAME":"STARLINK-1228","RCS_SIZE":"LARGE","PERIOD":"95.593","FILE":"3460905","TLE_LINE2":"2 45188  53.0552 108.9041 0002055  52.9294 307.1883 15.06393914126431","MEAN_MOTION_DOT":"-0.00000891","EPHEMERIS_TYPE":"0","MEAN_ELEMENT_THEORY":"SGP4","ELEMENT_SET_NO":"999","REV_AT_EPOCH":"12643","COUNTRY_CODE":"US","DECAY_DATE":null,"OBJECT_ID":"2020-012L","MEAN_MOTION_DDOT":"0.0000000000000","TLE_LINE1":"1 45188U 20012L   22143.62775091 -.00000891  00000-0 -40898-4 0  9993","GP_ID":"204363099","NORAD_CAT_ID":"45188","INCLINATION":"53.0552","TIME_SYSTEM":"UTC","APOAPSIS":"548.655","SITE":"AFETR","EPOCH":"2022-05-23T15:03:57.678624","BSTAR":"-0.00004089800000","RA_OF_ASC_NODE":"108.9041","LAUNCH_DATE":"2020-02-17","CENTER_NAME":"EARTH","CLASSIFICATION_TYPE":"U","MEAN_ANOMALY":"307.1883","SEMIMAJOR_AXIS":"6925.367"},{"BSTAR":"0.00009341300000","MEAN_ANOMALY":"308.4763","CLASSIFICATION_TYPE":"U","LAUNCH_DATE":"2020-02-17","RA_OF_ASC_NODE":"148.4185","CENTER_NAME":"EARTH","SEMIMAJOR_AXIS":"6925.345","TLE_LINE1":"1 45189U 20012M   22143.73464311  .00001110  00000-0  93413-4 0  9990","GP_ID":"204363847","NORAD_CAT_ID":"45189","APOAPSIS":"548.520","INCLINATION":"53.0545","TIME_SYSTEM":"UTC","SITE":"AFETR","EPOCH":"2022-05-23T17:37:53.164704","OBJECT_NAME":"STARLINK-1230","RCS_SIZE":"LARGE","PERIOD":"95.592","ELEMENT_SET_NO":"999","FILE":"3460905","TLE_LINE2":"2 45189  53.0545 148.4185 0001891  51.6396 308.4763 15.06401085123165","MEAN_MOTION_DOT":"0.00001110","MEAN_ELEMENT_THEORY":"SGP4","EPHEMERIS_TYPE":"0","MEAN_MOTION_DDOT":"0.0000000000000","OBJECT_ID":"2020-012M","REV_AT_EPOCH":"12316","DECAY_DATE":null,"COUNTRY_CODE":"US","MEAN_MOTION":"15.06401085","OBJECT_TYPE":"PAYLOAD","PERIAPSIS":"545.901","REF_FRAME":"TEME","ARG_OF_PERICENTER":"51.6396","ECCENTRICITY":"0.00018910"},{"BSTAR":"0.00007493700000","CENTER_NAME":"EARTH","LAUNCH_DATE":"2020-02-17","RA_OF_ASC_NODE":"108.9320","MEAN_ANOMALY":"314.2647","CLASSIFICATION_TYPE":"U","SEMIMAJOR_AXIS":"6925.346","TLE_LINE1":"1 45190U 20012N   22143.62037430  .00000834  00000-0  74937-4 0  9990","GP_ID":"204363600","NORAD_CAT_ID":"45190","TIME_SYSTEM":"UTC","INCLINATION":"53.0562","APOAPSIS":"549.251","EPOCH":"2022-05-23T14:53:20.339520","SITE":"AFETR","RCS_SIZE":"LARGE","OBJECT_NAME":"STARLINK-1234","PERIOD":"95.592","EPHEMERIS_TYPE":"0","MEAN_ELEMENT_THEORY":"SGP4","TLE_LINE2":"2 45190  53.0562 108.9320 0002945  45.8584 314.2647 15.06400675126380","FILE":"3460905","MEAN_MOTION_DOT":"0.00000834","ELEMENT_SET_NO":"999","COUNTRY_CODE":"US","DECAY_DATE":null,"REV_AT_EPOCH":"12638","OBJECT_ID":"2020-012N","MEAN_MOTION_DDOT":"0.0000000000000","MEAN_MOTION":"15.06400675","OBJECT_TYPE":"PAYLOAD","ARG_OF_PERICENTER":"45.8584","REF_FRAME":"TEME","PERIAPSIS":"545.172","ECCENTRICITY":"0.00029450"}];
